GLOBALSTAR M001         
1 25162U 98008A   24310.61480230 -.00000022  00000+0  56867-3 0  9994
2 25162  52.0029 263.9443 0001587 117.6940  53.1870 12.38198972216122
GLOBALSTAR M004         
1 25163U 98008B   24310.48834866 -.00000020  00000+0  46438-3 0  9999
2 25163  52.0030  16.5943 0003430 149.4644 223.8063 12.63377611233413
GLOBALSTAR M002         
1 25164U 98008C   24311.10421132 -.00000068  00000+0  15887-3 0  9994
2 25164  52.0012  79.5421 0002252 105.2084 254.8985 11.61505444158218
GLOBALSTAR M003         
1 25165U 98008D   24310.56102913  .00000015  00000+0  11126-2 0  9999
2 25165  51.9966  67.8590 0008180 199.1342 246.5166 12.12049912206108
GLOBALSTAR M006         
1 25307U 98023B   24310.58640325 -.00000048  00000+0  56114-3 0  9994
2 25307  51.9961  52.8832 0004027  70.9607 302.3284 11.58169525190926
GLOBALSTAR M008         
1 25309U 98023D   24310.73175170 -.00000047  00000+0  38708-3 0  9992
2 25309  51.9941 125.9018 0003505  74.0254  10.6874 12.36054369210526
